GLOBALSTAR M024         
1 25883U 99043A   25353.94084065 -.00000110  00000+0 -16179-2 0  9994
2 25883  52.0045 321.4963 0001823  35.5586 356.9199 11.10166038135499
GLOBALSTAR M027         
1 25884U 99043B   25353.86538138 -.00000015  00000+0  18407-2 0  9990
2 25884  52.0235  44.9083 0020994 290.3906  69.4632 11.04372533161756
GLOBALSTAR M054         
1 25885U 99043C   25353.90309672 -.00000088  00000+0 -42908-3 0  9990
2 25885  52.0111 140.9553 0005900 130.0682  40.6208 11.39224917140218
GLOBALSTAR M053         
1 25886U 99043D   25353.70986457 -.00000092  00000+0 -68938-3 0  9997
2 25886  51.9980  98.8065 0003597  54.5757  95.1807 11.27668836140379
GLOBALSTAR M058         
1 25907U 99049A   25353.27362035 -.00000103  00000+0 -25359-3 0  9992
2 25907  51.9971 334.9421 0001720 274.8529  85.2109 11.93206387563638
GLOBALSTAR M050         
1 25908U 99049B   25353.66834594 -.00000073  00000+0  17690-3 0  9994
2 25908  52.0013 327.7062 0009436  41.2335 129.3408 12.07461663170599
GLOBALSTAR M033         
1 25909U 99049C   25353.54692645 -.00000102  00000+0 -99930-4 0  9993
2 25909  51.9878 187.0695 0013111 287.8725  72.0692 12.20294807558376
GLOBALSTAR M055         
1 25910U 99049D   25353.53995425 -.00000054  00000+0  34459-3 0  9995
2 25910  51.9984 188.8101 0007495 147.5463 212.5851 12.29438378191087
